[{"OBJECT_NAME":"ONEWEB-0233","OBJECT_ID":"2021-045AE","EPOCH":"2026-04-02T04:33:08.712288","MEAN_MOTION":13.15550067,"ECCENTRICITY":0.0001995,"INCLINATION":87.8925,"RA_OF_ASC_NODE":274.4048,"ARG_OF_PERICENTER":90.5317,"MEAN_ANOMALY":269.6042,"EPHEMERIS_TYPE":0,"CLASSIFICATION_TYPE":"U","NORAD_CAT_ID":48795,"ELEMENT_SET_NO":999,"REV_AT_EPOCH":23430,"BSTAR":0.000268,"MEAN_MOTION_DOT":1.14e-06,"MEAN_MOTION_DDOT":0.0},{"OBJECT_NAME":"ONEWEB-0190","OBJECT_ID":"2021-045AF","EPOCH":"2026-04-02T06:04:34.406400","MEAN_MOTION":13.15548671,"ECCENTRICITY":0.0002468,"INCLINATION":87.8921,"RA_OF_ASC_NODE":274.3536,"ARG_OF_PERICENTER":95.4869,"MEAN_ANOMALY":264.6543,"EPHEMERIS_TYPE":0,"CLASSIFICATION_TYPE":"U","NORAD_CAT_ID":48796,"ELEMENT_SET_NO":999,"REV_AT_EPOCH":23438,"BSTAR":-0.000199,"MEAN_MOTION_DOT":-6.2e-07,"MEAN_MOTION_DDOT":0.0},{"OBJECT_NAME":"ONEWEB-0236","OBJECT_ID":"2021-045AG","EPOCH":"2026-04-02T04:40:09.602976","MEAN_MOTION":13.15550583,"ECCENTRICITY":0.0001587,"INCLINATION":87.8923,"RA_OF_ASC_NODE":274.3762,"ARG_OF_PERICENTER":90.1923,"MEAN_ANOMALY":269.939,"EPHEMERIS_TYPE":0,"CLASSIFICATION_TYPE":"U","NORAD_CAT_ID":48797,"ELEMENT_SET_NO":999,"REV_AT_EPOCH":23426,"BSTAR":0.00038594000000000004,"MEAN_MOTION_DOT":1.58e-06,"MEAN_MOTION_DDOT":0.0},{"OBJECT_NAME":"ONEWEB-0248","OBJECT_ID":"2021-045AH","EPOCH":"2026-04-02T04:58:25.832352","MEAN_MOTION":13.15548994,"ECCENTRICITY":0.0002132,"INCLINATION":87.8935,"RA_OF_ASC_NODE":274.3494,"ARG_OF_PERICENTER":87.1433,"MEAN_ANOMALY":272.9941,"EPHEMERIS_TYPE":0,"CLASSIFICATION_TYPE":"U","NORAD_CAT_ID":48798,"ELEMENT_SET_NO":999,"REV_AT_EPOCH":23442,"BSTAR":4.0101e-05,"MEAN_MOTION_DOT":2.8e-07,"MEAN_MOTION_DDOT":0.0},{"OBJECT_NAME":"ONEWEB-0225","OBJECT_ID":"2021-045AJ","EPOCH":"2026-04-02T00:01:47.586144","MEAN_MOTION":13.15550331,"ECCENTRICITY":0.0002315,"INCLINATION":87.8922,"RA_OF_ASC_NODE":274.4043,"ARG_OF_PERICENTER":95.7256,"MEAN_ANOMALY":264.4138,"EPHEMERIS_TYPE":0,"CLASSIFICATION_TYPE":"U","NORAD_CAT_ID":48799,"ELEMENT_SET_NO":999,"REV_AT_EPOCH":23440,"BSTAR":-0.00018204999999999998,"MEAN_MOTION_DOT":-5.6e-07,"MEAN_MOTION_DDOT":0.0},{"OBJECT_NAME":"ONEWEB-0215","OBJECT_ID":"2021-045AK","EPOCH":"2026-04-02T04:47:00.925728","MEAN_MOTION":13.15550291,"ECCENTRICITY":0.0002472,"INCLINATION":87.8937,"RA_OF_ASC_NODE":274.3403,"ARG_OF_PERICENTER":91.9424,"MEAN_ANOMALY":268.1989,"EPHEMERIS_TYPE":0,"CLASSIFICATION_TYPE":"U","NORAD_CAT_ID":48800,"ELEMENT_SET_NO":999,"REV_AT_EPOCH":23430,"BSTAR":0.00014355000000000002,"MEAN_MOTION_DOT":6.7e-07,"MEAN_MOTION_DDOT":0.0},{"OBJECT_NAME":"ONEWEB-0216","OBJECT_ID":"2021-045AL","EPOCH":"2026-04-02T05:00:41.958144","MEAN_MOTION":13.15548835,"ECCENTRICITY":0.0001668,"INCLINATION":87.8932,"RA_OF_ASC_NODE":274.3557,"ARG_OF_PERICENTER":95.4075,"MEAN_ANOMALY":264.7246,"EPHEMERIS_TYPE":0,"CLASSIFICATION_TYPE":"U","NORAD_CAT_ID":48801,"ELEMENT_SET_NO":999,"REV_AT_EPOCH":23431,"BSTAR":-3.2832e-05,"MEAN_MOTION_DOT":0.0,"MEAN_MOTION_DDOT":0.0},{"OBJECT_NAME":"ONEWEB-0239","OBJECT_ID":"2021-045AM","EPOCH":"2026-04-02T05:07:32.397888","MEAN_MOTION":13.15547634,"ECCENTRICITY":0.0002516,"INCLINATION":87.8921,"RA_OF_ASC_NODE":274.3681,"ARG_OF_PERICENTER":85.4897,"MEAN_ANOMALY":274.6521,"EPHEMERIS_TYPE":0,"CLASSIFICATION_TYPE":"U","NORAD_CAT_ID":48802,"ELEMENT_SET_NO":999,"REV_AT_EPOCH":23435,"BSTAR":-0.00015647,"MEAN_MOTION_DOT":-4.6e-07,"MEAN_MOTION_DDOT":0.0},{"OBJECT_NAME":"ONEWEB-0249","OBJECT_ID":"2021-060A","EPOCH":"2026-04-02T03:09:58.542048","MEAN_MOTION":13.1659324,"ECCENTRICITY":0.0001818,"INCLINATION":87.904,"RA_OF_ASC_NODE":243.8933,"ARG_OF_PERICENTER":96.4604,"MEAN_ANOMALY":263.6734,"EPHEMERIS_TYPE":0,"CLASSIFICATION_TYPE":"U","NORAD_CAT_ID":48967,"ELEMENT_SET_NO":999,"REV_AT_EPOCH":22960,"BSTAR":-0.00030952000000000003,"MEAN_MOTION_DOT":-1.05e-06,"MEAN_MOTION_DDOT":0.0},{"OBJECT_NAME":"ONEWEB-0250","OBJECT_ID":"2021-060B","EPOCH":"2026-04-02T07:28:21.378720","MEAN_MOTION":13.25829487,"ECCENTRICITY":0.0001904,"INCLINATION":87.9037,"RA_OF_ASC_NODE":241.8597,"ARG_OF_PERICENTER":67.5398,"MEAN_ANOMALY":292.594,"EPHEMERIS_TYPE":0,"CLASSIFICATION_TYPE":"U","NORAD_CAT_ID":48968,"ELEMENT_SET_NO":999,"REV_AT_EPOCH":23016,"BSTAR":-2.4771000000000004e-05,"MEAN_MOTION_DOT":2e-08,"MEAN_MOTION_DDOT":0.0},{"OBJECT_NAME":"ONEWEB-0252","OBJECT_ID":"2021-060D","EPOCH":"2026-04-02T03:54:26.359776","MEAN_MOTION":13.16596343,"ECCENTRICITY":0.0001801,"INCLINATION":87.9036,"RA_OF_ASC_NODE":243.879,"ARG_OF_PERICENTER":107.5559,"MEAN_ANOMALY":252.5769,"EPHEMERIS_TYPE":0,"CLASSIFICATION_TYPE":"U","NORAD_CAT_ID":48970,"ELEMENT_SET_NO":999,"REV_AT_EPOCH":22965,"BSTAR":0.00061454,"MEAN_MOTION_DOT":2.48e-06,"MEAN_MOTION_DDOT":0.0},{"OBJECT_NAME":"ONEWEB-0253","OBJECT_ID":"2021-060E","EPOCH":"2026-04-02T03:38:27.465792","MEAN_MOTION":13.16596661,"ECCENTRICITY":0.0001808,"INCLINATION":87.9036,"RA_OF_ASC_NODE":243.8871,"ARG_OF_PERICENTER":97.9439,"MEAN_ANOMALY":262.1898,"EPHEMERIS_TYPE":0,"CLASSIFICATION_TYPE":"U","NORAD_CAT_ID":48971,"ELEMENT_SET_NO":999,"REV_AT_EPOCH":22958,"BSTAR":-0.00019299,"MEAN_MOTION_DOT":-6.1e-07,"MEAN_MOTION_DDOT":0.0},{"OBJECT_NAME":"ONEWEB-0254","OBJECT_ID":"2021-060F","EPOCH":"2026-04-01T22:23:51.653472","MEAN_MOTION":13.16594489,"ECCENTRICITY":0.0002032,"INCLINATION":87.9037,"RA_OF_ASC_NODE":243.9261,"ARG_OF_PERICENTER":94.1282,"MEAN_ANOMALY":266.0081,"EPHEMERIS_TYPE":0,"CLASSIFICATION_TYPE":"U","NORAD_CAT_ID":48972,"ELEMENT_SET_NO":999,"REV_AT_EPOCH":22955,"BSTAR":-7.2254e-05,"MEAN_MOTION_DOT":-1.5e-07,"MEAN_MOTION_DDOT":0.0},{"OBJECT_NAME":"ONEWEB-0255","OBJECT_ID":"2021-060G","EPOCH":"2026-04-01T23:18:34.684992","MEAN_MOTION":13.16592917,"ECCENTRICITY":0.0001933,"INCLINATION":87.9039,"RA_OF_ASC_NODE":243.9272,"ARG_OF_PERICENTER":97.021,"MEAN_ANOMALY":263.1141,"EPHEMERIS_TYPE":0,"CLASSIFICATION_TYPE":"U","NORAD_CAT_ID":48973,"ELEMENT_SET_NO":999,"REV_AT_EPOCH":22963,"BSTAR":-0.00028383000000000005,"MEAN_MOTION_DOT":-9.6e-07,"MEAN_MOTION_DDOT":0.0},{"OBJECT_NAME":"ONEWEB-0256","OBJECT_ID":"2021-060H","EPOCH":"2026-04-02T03:35:02.653728","MEAN_MOTION":13.16595975,"ECCENTRICITY":0.0001694,"INCLINATION":87.9038,"RA_OF_ASC_NODE":243.8991,"ARG_OF_PERICENTER":103.5842,"MEAN_ANOMALY":256.5478,"EPHEMERIS_TYPE":0,"CLASSIFICATION_TYPE":"U","NORAD_CAT_ID":48974,"ELEMENT_SET_NO":999,"REV_AT_EPOCH":22962,"BSTAR":-0.00025126,"MEAN_MOTION_DOT":-8.3e-07,"MEAN_MOTION_DDOT":0.0},{"OBJECT_NAME":"ONEWEB-0257","OBJECT_ID":"2021-060J","EPOCH":"2026-04-02T08:00:40.236192","MEAN_MOTION":13.16595351,"ECCENTRICITY":0.0001884,"INCLINATION":87.9039,"RA_OF_ASC_NODE":243.8462,"ARG_OF_PERICENTER":100.957,"MEAN_ANOMALY":259.1773,"EPHEMERIS_TYPE":0,"CLASSIFICATION_TYPE":"U","NORAD_CAT_ID":48975,"ELEMENT_SET_NO":999,"REV_AT_EPOCH":22960,"BSTAR":0.00025575,"MEAN_MOTION_DOT":1.11e-06,"MEAN_MOTION_DDOT":0.0}]