ONEWEB-0233             
1 48795U 21045AE  26092.18968417  .00000114  00000+0  26800-3 0  9992
2 48795  87.8925 274.4048 0001995  90.5317 269.6042 13.15550067234306
ONEWEB-0190             
1 48796U 21045AF  26092.25317600 -.00000062  00000+0 -19900-3 0  9990
2 48796  87.8921 274.3536 0002468  95.4869 264.6543 13.15548671234383
ONEWEB-0236             
1 48797U 21045AG  26092.19455559  .00000158  00000+0  38594-3 0  9994
2 48797  87.8923 274.3762 0001587  90.1923 269.9390 13.15550583234261
ONEWEB-0248             
1 48798U 21045AH  26092.20724343  .00000028  00000+0  40101-4 0  9991
2 48798  87.8935 274.3494 0002132  87.1433 272.9941 13.15548994234423
ONEWEB-0225             
1 48799U 21045AJ  26092.00124521 -.00000056  00000+0 -18205-3 0  9994
2 48799  87.8922 274.4043 0002315  95.7256 264.4138 13.15550331234402
ONEWEB-0215             
1 48800U 21045AK  26092.19931627  .00000067  00000+0  14355-3 0  9992
2 48800  87.8937 274.3403 0002472  91.9424 268.1989 13.15550291234308
ONEWEB-0216             
1 48801U 21045AL  26092.20881896  .00000000  00000+0 -32832-4 0  9996
2 48801  87.8932 274.3557 0001668  95.4075 264.7246 13.15548835234311
ONEWEB-0239             
1 48802U 21045AM  26092.21356942 -.00000046  00000+0 -15647-3 0  9992
2 48802  87.8921 274.3681 0002516  85.4897 274.6521 13.15547634234358
ONEWEB-0249             
1 48967U 21060A   26092.13192757 -.00000105  00000+0 -30952-3 0  9996
2 48967  87.9040 243.8933 0001818  96.4604 263.6734 13.16593240229607
ONEWEB-0250             
1 48968U 21060B   26092.31135855  .00000002  00000+0 -24771-4 0  9991
2 48968  87.9037 241.8597 0001904  67.5398 292.5940 13.25829487230161
ONEWEB-0252             
1 48970U 21060D   26092.16280509  .00000248  00000+0  61454-3 0  9993
2 48970  87.9036 243.8790 0001801 107.5559 252.5769 13.16596343229659
ONEWEB-0253             
1 48971U 21060E   26092.15170678 -.00000061  00000+0 -19299-3 0  9993
2 48971  87.9036 243.8871 0001808  97.9439 262.1898 13.16596661229581
ONEWEB-0254             
1 48972U 21060F   26091.93323673 -.00000015  00000+0 -72254-4 0  9994
2 48972  87.9037 243.9261 0002032  94.1282 266.0081 13.16594489229552
ONEWEB-0255             
1 48973U 21060G   26091.97123478 -.00000096  00000+0 -28383-3 0  9992
2 48973  87.9039 243.9272 0001933  97.0210 263.1141 13.16592917229637
ONEWEB-0256             
1 48974U 21060H   26092.14933627 -.00000083  00000+0 -25126-3 0  9996
2 48974  87.9038 243.8991 0001694 103.5842 256.5478 13.16595975229627
ONEWEB-0257             
1 48975U 21060J   26092.33379903  .00000111  00000+0  25575-3 0  9997
2 48975  87.9039 243.8462 0001884 100.9570 259.1773 13.16595351229605
